GOES 1 [-]              
1 08366U 75100A   09167.46108782 -.00000232  00000-0  10000-3 0  8693
2 08366  14.3657 347.8358 0002135 275.3677  84.6019  1.00292209122948
GOES 2 [-]              
1 10061U 77048A   09167.52849232 -.00000029  00000-0  10000-3 0  8829
2 10061  14.6511 356.2921 0015988 252.2730 107.5554  0.99394656 61799
GOES 3 [P]              
1 10953U 78062A   09166.55468077 -.00000115  00000-0  10000-3 0  5353
2 10953  14.3604   0.1067 0003537   5.9048 354.0994  1.00266568 66657
GOES 4 [-]              
1 11964U 80074A   09166.78457223 -.00000172  00000-0  10000-3 0  1267
2 11964  14.7122   3.7958 0035843 294.5203  65.0954  0.99233527 66012
GOES 5 [-]              
1 12472U 81049A   09167.50986272 -.00000259  00000-0  10000-3 0  1623
2 12472  13.6836  14.3033 0001853 184.1789 175.8223  1.00234660 60707
GOES 6 [-]              
1 14050U 83041A   09167.52620620 -.00000258  00000-0  10000-3 0  1624
2 14050  13.3400  19.3960 0001556   6.4782 353.5168  1.00277844153806
GOES 7 [-]              
1 17561U 87022A   09169.41629845  .00000063  00000-0  10000-3 0  9996
2 17561  12.1091  37.2086 0002569 197.4789   4.8928  1.00281198 64921
GOES 8 [-]              
1 23051U 94022A   09163.49448093 -.00000187  00000-0  10000-3 0  8303
2 23051   5.7392  73.7024 0006228 178.8915 180.9032  0.98907966 62677
GOES 9 [P]              
1 23581U 95025A   09166.80163177  .00000066  00000-0  10000-3 0  1128
2 23581   5.3082  70.6234 0004978 323.1256  36.6559  0.98799050 51413
GOES 10 [+]             
1 24786U 97019A   09168.38691968 -.00000267  00000-0  10000-3 0  9661
2 24786   3.6326  74.5865 0003943  15.7178 254.4534  1.00260752 44505
GOES 11 [+]             
1 26352U 00022A   09169.87277127  .00000107  00000-0  10000-3 0  3668
2 26352   0.4802 262.8694 0001469 275.6767 267.6839  1.00262777 33426
GOES 12 [+]             
1 26871U 01031A   09168.40071029 -.00000233  00000-0  10000-3 0  1014
2 26871   0.0124  62.5899 0004918  13.7263 258.9127  1.00277517 29001
GOES 13 [S]             
1 29155U 06018A   09168.43933951 -.00000067  00000-0  10000-3 0  6522
2 29155   0.1549 240.7124 0001315 314.4618 123.2694  1.00272051 11254
